     2              NAVIGATION DATA                         RINEX VERSION / TYPE
CCRINEXN V1.6.0 UX  CDDIS               20-OCT-22 13:26     PGM / RUN BY / DATE 
IGS BROADCAST EPHEMERIS FILE                                COMMENT             
    0.2049D-07 -0.7451D-08 -0.1192D-06  0.5960D-07          ION ALPHA           
    0.1249D+06 -0.3277D+05 -0.2621D+06  0.1311D+06          ION BETA            
    0.000000000000D+00-0.355271367880D-14   589824     2232 DELTA-UTC: A0,A1,T,W
    18                                                      LEAP SECONDS        
                                                            END OF HEADER       
 7 22 10 20  8  0  0.0 0.296860001981D-03-0.397903932026D-11 0.000000000000D+00
    0.790000000000D+02 0.283750000000D+02 0.474091176372D-08 0.779011585325D+00
    0.166147947311D-05 0.164229336660D-01 0.930391252041D-05 0.515362797737D+04
    0.374400000000D+06-0.223517417908D-06 0.312053211334D+01 0.106170773506D-06
    0.951021579397D+00 0.198312500000D+03-0.223939461628D+01-0.826570144250D-08
    0.164292557730D-09 0.100000000000D+01 0.223200000000D+04 0.000000000000D+00
    0.200000000000D+01 0.000000000000D+00-0.111758708954D-07 0.790000000000D+02
    0.373776000000D+06 0.400000000000D+01 0.000000000000D+00 0.000000000000D+00
 8 22 10 20  8  0  0.0-0.897380523384D-04-0.181898940355D-11 0.000000000000D+00
    0.122000000000D+03 0.155312500000D+02 0.438446834499D-08-0.261892305529D+01
    0.728294253349D-06 0.764323689509D-02 0.954605638981D-05 0.515360881996D+04
    0.374400000000D+06-0.117346644402D-06-0.109541497024D+01-0.124797224999D-06
    0.961540255897D+00 0.199468750000D+03 0.164288763652D+00-0.787247077715D-08
   -0.235366946835D-09 0.100000000000D+01 0.223200000000D+04 0.000000000000D+00
    0.200000000000D+01 0.000000000000D+00 0.512227416039D-08 0.122000000000D+03
    0.367218000000D+06 0.400000000000D+01 0.000000000000D+00 0.000000000000D+00
 9 22 10 20  8  0  0.0-0.280697830021D-03 0.522959453519D-11 0.000000000000D+00
    0.119000000000D+03-0.830000000000D+02 0.450554481688D-08-0.222574201669D+01
   -0.432133674622D-05 0.259750697296D-02 0.941753387451D-05 0.515374425888D+04
    0.374400000000D+06 0.428408384323D-07 0.204907046927D+01 0.558793544769D-07
    0.954844427183D+00 0.195562500000D+03 0.191220317021D+01-0.797533220460D-08
   -0.182864759908D-09 0.100000000000D+01 0.223200000000D+04 0.000000000000D+00
    0.280000000000D+01 0.000000000000D+00 0.139698386192D-08 0.119000000000D+03
    0.367218000000D+06 0.400000000000D+01 0.000000000000D+00 0.000000000000D+00
10 22 10 20  8  0  0.0-0.827945768833D-05-0.159161572810D-11 0.000000000000D+00
    0.870000000000D+02-0.402500000000D+02 0.451197365610D-08-0.593448778769D+00
   -0.219792127609D-05 0.804089487065D-02 0.400282442570D-05 0.515368025589D+04
    0.374400000000D+06 0.484287738800D-07 0.101951413113D+01 0.121071934700D-06
    0.975367229469D+00 0.309156250000D+03-0.250746959543D+01-0.826855870437D-08
   -0.149291932894D-09 0.100000000000D+01 0.223200000000D+04 0.000000000000D+00
    0.280000000000D+01 0.000000000000D+00 0.232830643654D-08 0.870000000000D+02
    0.370908000000D+06 0.400000000000D+01 0.000000000000D+00 0.000000000000D+00
11 22 10 20  8  0  0.0-0.280556268990D-04-0.466116034659D-11 0.000000000000D+00
    0.540000000000D+02 0.559062500000D+02 0.444125642473D-08-0.307915905943D+01
    0.292807817459D-05 0.780013273470D-03 0.708363950253D-05 0.515365554047D+04
    0.374400000000D+06-0.651925802231D-07 0.279803768321D-01-0.130385160446D-07
    0.964356166928D+00 0.244343750000D+03-0.299377043440D+01-0.805962142987D-08
    0.223580741607D-09 0.100000000000D+01 0.223200000000D+04 0.000000000000D+00
    0.200000000000D+01 0.000000000000D+00-0.838190317154D-08 0.310000000000D+03
    0.369769000000D+06 0.400000000000D+01 0.000000000000D+00 0.000000000000D+00
12 22 10 20  8  0  0.0-0.294381286949D-03-0.443378667114D-11 0.000000000000D+00
    0.126000000000D+03 0.971875000000D+01 0.465840832712D-08 0.558613425291D-01
    0.311061739922D-06 0.854587682989D-02 0.555440783501D-05 0.515371898842D+04
    0.374400000000D+06-0.126659870148D-06-0.204880733565D+01 0.633299350738D-07
    0.967483236246D+00 0.279875000000D+03 0.131809155788D+01-0.829105964163D-08
   -0.104290058385D-09 0.100000000000D+01 0.223200000000D+04 0.000000000000D+00
    0.200000000000D+01 0.000000000000D+00-0.125728547573D-07 0.126000000000D+03
    0.367309000000D+06 0.400000000000D+01 0.000000000000D+00 0.000000000000D+00
13 22 10 20  8  0  0.0 0.409391243011D-03 0.704858393874D-11 0.000000000000D+00
    0.280000000000D+02-0.676250000000D+02 0.409338479162D-08-0.311640027239D+01
   -0.344030559063D-05 0.659879203886D-02 0.987388193607D-05 0.515367878151D+04
    0.374400000000D+06 0.391155481338D-07 0.220588232445D+01-0.372529029846D-07
    0.969052322679D+00 0.192656250000D+03 0.946118536309D+00-0.767317676147D-08
   -0.760745973838D-10 0.100000000000D+01 0.223200000000D+04 0.000000000000D+00
    0.200000000000D+01 0.000000000000D+00-0.116415321827D-07 0.280000000000D+02
    0.367274000000D+06 0.400000000000D+01 0.000000000000D+00 0.000000000000D+00
14 22 10 20  8  0  0.0-0.931341201067D-04 0.409272615798D-11 0.000000000000D+00
    0.210000000000D+03 0.128437500000D+02 0.503913847177D-08 0.139529454476D-01
    0.691041350365D-06 0.235505879391D-02 0.518746674061D-05 0.515365170097D+04
    0.374400000000D+06 0.447034835815D-07-0.208403400509D+01 0.745058059692D-08
    0.950881120244D+00 0.274062500000D+03-0.303303327579D+01-0.837427739370D-08
   -0.807176479283D-10 0.100000000000D+01 0.223200000000D+04 0.000000000000D+00
    0.200000000000D+01 0.000000000000D+00-0.791624188423D-08 0.466000000000D+03
    0.367275000000D+06 0.400000000000D+01 0.000000000000D+00 0.000000000000D+00
15 22 10 20  8  0  0.0-0.193994492292D-04 0.318323145621D-11 0.000000000000D+00
    0.420000000000D+02-0.846562500000D+02 0.501485174585D-08 0.267311497129D+01
   -0.445544719696D-05 0.146907384042D-01 0.794976949692D-05 0.515363484001D+04
    0.374400000000D+06 0.109896063805D-06 0.193646481221D+01-0.149011611938D-06
    0.930854779689D+00 0.208062500000D+03 0.114864500152D+01-0.807569352791D-08
   -0.208222959036D-09 0.100000000000D+01 0.223200000000D+04 0.000000000000D+00
    0.200000000000D+01 0.000000000000D+00-0.107102096081D-07 0.420000000000D+02
    0.367276000000D+06 0.400000000000D+01 0.000000000000D+00 0.000000000000D+00
16 22 10 20  8  0  0.0-0.526432879269D-03-0.454747350886D-12 0.000000000000D+00
    0.101000000000D+03 0.103125000000D+02 0.455233248006D-08-0.172535277923D+01
    0.355765223503D-06 0.128739691572D-01 0.521168112755D-05 0.515372158432D+04
    0.374400000000D+06 0.169500708580D-06-0.203035920137D+01-0.134110450745D-06
    0.967288653512D+00 0.275531250000D+03 0.735284453377D+00-0.795997442203D-08
   -0.239295681911D-10 0.100000000000D+01 0.223200000000D+04 0.000000000000D+00
    0.200000000000D+01 0.000000000000D+00-0.102445483208D-07 0.101000000000D+03
    0.367218000000D+06 0.400000000000D+01 0.000000000000D+00 0.000000000000D+00
17 22 10 20  8  0  0.0 0.670429784805D-03 0.352429196937D-11 0.000000000000D+00
    0.580000000000D+02 0.700000000000D+01 0.399659504565D-08-0.261812881365D+01
    0.467523932457D-06 0.138125603553D-01 0.952742993832D-05 0.515364535713D+04
    0.374400000000D+06 0.121071934700D-06-0.100974439700D+01 0.121071934700D-06
    0.976971175777D+00 0.199375000000D+03-0.147145495235D+01-0.755031450090D-08
   -0.181436128972D-09 0.100000000000D+01 0.223200000000D+04 0.000000000000D+00
    0.200000000000D+01 0.000000000000D+00-0.111758708954D-07 0.580000000000D+02
    0.367268000000D+06 0.400000000000D+01 0.000000000000D+00 0.000000000000D+00
18 22 10 20  8  0  0.0 0.827573239803D-05-0.135287336889D-10 0.000000000000D+00
    0.390000000000D+02 0.572500000000D+02 0.433446626220D-08 0.163291863540D+01
    0.310875475407D-05 0.292089697905D-02 0.678934156895D-05 0.515372236824D+04
    0.374400000000D+06 0.100582838059D-06-0.583363746299D-02 0.577419996262D-07
    0.972933564302D+00 0.254531250000D+03 0.311175977043D+01-0.807426489697D-08
    0.175721605225D-09 0.100000000000D+01 0.223200000000D+04 0.000000000000D+00
    0.200000000000D+01 0.000000000000D+00-0.838190317154D-08 0.807000000000D+03
    0.367218000000D+06 0.400000000000D+01 0.000000000000D+00 0.000000000000D+00
19 22 10 20  8  0  0.0 0.226221978664D-03 0.511590769747D-11 0.000000000000D+00
    0.104000000000D+03 0.525000000000D+01 0.409659921123D-08-0.493514555308D+00
    0.251457095146D-06 0.906145921908D-02 0.976584851742D-05 0.515373160171D+04
    0.374400000000D+06-0.128522515297D-06-0.965044619102D+00-0.968575477600D-07
    0.975928112260D+00 0.200906250000D+03 0.219814497852D+01-0.792711591048D-08
   -0.161792453591D-09 0.100000000000D+01 0.223200000000D+04 0.000000000000D+00
    0.200000000000D+01 0.000000000000D+00-0.153668224812D-07 0.104000000000D+03
    0.367278000000D+06 0.400000000000D+01 0.000000000000D+00 0.000000000000D+00
20 22 10 20  8  0  0.0 0.476906541735D-03-0.306954461848D-11 0.000000000000D+00
    0.220000000000D+02-0.943750000000D+01 0.509949812885D-08 0.248311086541D+01
   -0.521540641785D-06 0.476294383407D-02 0.333227217197D-05 0.515367044067D+04
    0.374400000000D+06-0.707805156708D-07 0.859988075761D+00 0.577419996262D-07
    0.945120549687D+00 0.309375000000D+03-0.306599756290D+01-0.848428197583D-08
    0.110718897601D-10 0.100000000000D+01 0.223200000000D+04 0.000000000000D+00
    0.200000000000D+01 0.000000000000D+00-0.838190317154D-08 0.220000000000D+02
    0.372636000000D+06 0.400000000000D+01 0.000000000000D+00 0.000000000000D+00
